{
    "links": {
        "self": "http://www.neowsapp.com/rest/v1/neo/3653702?api_key=iIulBulltgU6a56xZRHN4H3l9WmuAYTsLGpBGhQ2"
    },
    "id": "3653702",
    "neo_reference_id": "3653702",
    "name": "(2013 VB14)",
    "designation": "2013 VB14",
    "nasa_jpl_url": "http://ssd.jpl.nasa.gov/sbdb.cgi?sstr=3653702",
    "absolute_magnitude_h": 21.3,
    "estimated_diameter": {
        "kilometers": {
            "estimated_diameter_min": 0.1460679643,
            "estimated_diameter_max": 0.3266178974
        },
        "meters": {
            "estimated_diameter_min": 146.0679642714,
            "estimated_diameter_max": 326.6178974458
        },
        "miles": {
            "estimated_diameter_min": 0.090762397,
            "estimated_diameter_max": 0.2029508896
        },
        "feet": {
            "estimated_diameter_min": 479.2256199,
            "estimated_diameter_max": 1071.581062656
        }
    },
    "is_potentially_hazardous_asteroid": false,
    "close_approach_data": [
        {
            "close_approach_date": "2011-11-05",
            "close_approach_date_full": "2011-Nov-05 23:31",
            "epoch_date_close_approach": 1320535860000,
            "relative_velocity": {
                "kilometers_per_second": "21.61849906",
                "kilometers_per_hour": "77826.5966160353",
                "miles_per_hour": "48358.4205473359"
            },
            "miss_distance": {
                "astronomical": "0.4826509445",
                "lunar": "187.7512174105",
                "kilometers": "72203553.250688215",
                "miles": "44865207.562658767"
            },
            "orbiting_body": "Earth"
        },
        {
            "close_approach_date": "2013-06-16",
            "close_approach_date_full": "2013-Jun-16 06:27",
            "epoch_date_close_approach": 1371364020000,
            "relative_velocity": {
                "kilometers_per_second": "12.5378768028",
                "kilometers_per_hour": "45136.356489981",
                "miles_per_hour": "28045.9766201218"
            },
            "miss_distance": {
                "astronomical": "0.1921680285",
                "lunar": "74.7533630865",
                "kilometers": "28747927.745699295",
                "miles": "17863133.976648471"
            },
            "orbiting_body": "Earth"
        },
        {
            "close_approach_date": "2013-11-02",
            "close_approach_date_full": "2013-Nov-02 13:18",
            "epoch_date_close_approach": 1383398280000,
            "relative_velocity": {
                "kilometers_per_second": "10.7646104065",
                "kilometers_per_hour": "38752.5974633946",
                "miles_per_hour": "24079.3570182965"
            },
            "miss_distance": {
                "astronomical": "0.3176010128",
                "lunar": "123.5467939792",
                "kilometers": "47512435.024722736",
                "miles": "29522858.1312403168"
            },
            "orbiting_body": "Earth"
        }
    ],
    "orbital_data": {
        "orbit_id": "7",
        "orbit_determination_date": "2017-04-06 08:43:37",
        "first_observation_date": "2013-11-11",
        "last_observation_date": "2013-11-29",
        "data_arc_in_days": 18,
        "observations_used": 47,
        "orbit_uncertainty": "8",
        "minimum_orbit_intersection": ".192614",
        "jupiter_tisserand_invariant": "4.344",
        "epoch_osculation": "2456615.5",
        "eccentricity": ".3581439020452332",
        "semi_major_axis": "1.534361734634882",
        "inclination": "20.01130516788494",
        "ascending_node_longitude": "244.873923380807",
        "orbital_period": "694.2087215533855",
        "perihelion_distance": ".9848394358438526",
        "perihelion_argument": "84.57536076802157",
        "aphelion_distance": "2.083884033425911",
        "perihelion_time": "2456520.779058374811",
        "mean_anomaly": "49.12000948182519",
        "mean_motion": ".5185760259457004",
        "equinox": "J2000",
        "orbit_class": {
            "orbit_class_type": "APO",
            "orbit_class_description": "Near-Earth asteroid orbits which cross the Earth’s orbit similar to that of 1862 Apollo",
            "orbit_class_range": "a (semi-major axis) > 1.0 AU; q (perihelion) < 1.017 AU"
        }
    },
    "is_sentry_object": false
}